$$SOE
2460154.500000000, A.D. 2023-Jul-29 00:00:00.0000, 4.883373471150715E+08, -9.454878126599893E+07, -3.467135583398303E+07,
2460161.500000000, A.D. 2023-Aug-05 00:00:00.0000, 4.902468911501845E+08, -8.554290462183519E+07, -3.776931208009483E+07,
2460168.500000000, A.D. 2023-Aug-12 00:00:00.0000, 4.919649794389446E+08, -7.650348033685169E+07, -4.085250993132475E+07,
2460175.500000000, A.D. 2023-Aug-19 00:00:00.0000, 4.934914744686172E+08, -6.743412109331378E+07, -4.391978846599832E+07,
2460182.500000000, A.D. 2023-Aug-26 00:00:00.0000, 4.948263074844468E+08, -5.833843052874957E+07, -4.696999878776009E+07,
2460189.500000000, A.D. 2023-Sep-02 00:00:00.0000, 4.959694777118921E+08, -4.922000225016581E+07, -5.000200423048049E+07,
2460196.500000000, A.D. 2023-Sep-09 00:00:00.0000, 4.969210515921057E+08, -4.008241899189197E+07, -5.301468056573336E+07,
2460203.500000000, A.D. 2023-Sep-16 00:00:00.0000, 4.976811621982472E+08, -3.092925197430288E+07, -5.600691623307370E+07,
2460210.500000000, A.D. 2023-Sep-23 00:00:00.0000, 4.982500092479503E+08, -2.176406017501533E+07, -5.897761260772502E+07,
2460217.500000000, A.D. 2023-Sep-30 00:00:00.0000, 4.986278593723762E+08, -1.259038831902352E+07, -6.192568417701397E+07,
2460224.500000000, A.D. 2023-Oct-07 00:00:00.0000, 4.988150442910594E+08, -3.411764128143035E+06, -6.485005845422213E+07,
2460231.500000000, A.D. 2023-Oct-14 00:00:00.0000, 4.988119579358016E+08, 5.768301857244790E+06, -6.774967599658564E+07,
2460238.500000000, A.D. 2023-Oct-21 00:00:00.0000, 4.986190557529685E+08, 1.494631548674689E+07, -7.062349069294332E+07,
2460245.500000000, A.D. 2023-Oct-28 00:00:00.0000, 4.982368547602279E+08, 2.411879949971981E+07, -7.347047000584644E+07,
2460252.500000000, A.D. 2023-Nov-04 00:00:00.0000, 4.976659331086894E+08, 3.328229454655498E+07, -7.628959511665891E+07,
2460259.500000000, A.D. 2023-Nov-11 00:00:00.0000, 4.969069293287853E+08, 4.243336013210998E+07, -7.907986103916618E+07,
2460266.500000000, A.D. 2023-Nov-18 00:00:00.0000, 4.959605414798198E+08, 5.156857541753154E+07, -8.184027672722638E+07,
2460273.500000000, A.D. 2023-Nov-25 00:00:00.0000, 4.948275262762872E+08, 6.068453990370674E+07, -8.456986518141554E+07,
2460280.500000000, A.D. 2023-Dec-02 00:00:00.0000, 4.935086982194187E+08, 6.977787398591106E+07, -8.726766355831054E+07,
2460287.500000000, A.D. 2023-Dec-09 00:00:00.0000, 4.920049288121396E+08, 7.884521932146977E+07, -8.993272329458809E+07,
2460294.500000000, A.D. 2023-Dec-16 00:00:00.0000, 4.903171461451615E+08, 8.788323902344726E+07, -9.256411027156013E+07,
2460301.500000000, A.D. 2023-Dec-23 00:00:00.0000, 4.884463352019874E+08, 9.688861836820382E+07, -9.516090499602704E+07,
2460308.500000000, A.D. 2023-Dec-30 00:00:00.0000, 4.863935375418066E+08, 1.058580670675713E+08, -9.772220258879146E+07,
2460315.500000000, A.D. 2024-Jan-06 00:00:00.0000, 4.841598485892248E+08, 1.147883207467597E+08, -1.002471126118711E+08,
2460322.500000000, A.D. 2024-Jan-13 00:00:00.0000, 4.817464157049532E+08, 1.236761398211441E+08, -1.027347591739841E+08,
2460329.500000000, A.D. 2024-Jan-20 00:00:00.0000, 4.791544382601688E+08, 1.325183088565532E+08, -1.051842811747329E+08,
2460336.500000000, A.D. 2024-Jan-27 00:00:00.0000, 4.763851676852157E+08, 1.413116370662899E+08, -1.075948324483581E+08,
2460343.500000000, A.D. 2024-Feb-03 00:00:00.0000, 4.734399070644591E+08, 1.500529589973102E+08, -1.099655818457647E+08,
2460350.500000000, A.D. 2024-Feb-10 00:00:00.0000, 4.703200105548949E+08, 1.587391351152698E+08, -1.122957133045405E+08,
2460357.500000000, A.D. 2024-Feb-17 00:00:00.0000, 4.670268827673302E+08, 1.673670522971226E+08, -1.145844259194644E+08,
2460364.500000000, A.D. 2024-Feb-24 00:00:00.0000, 4.635619781461385E+08, 1.759336242468506E+08, -1.168309340159836E+08,
2460371.500000000, A.D. 2024-Mar-02 00:00:00.0000, 4.599268003770445E+08, 1.844357918026318E+08, -1.190344672323824E+08,
2460378.500000000, A.D. 2024-Mar-09 00:00:00.0000, 4.561229019619902E+08, 1.928705230733727E+08, -1.211942706289407E+08,
2460385.500000000, A.D. 2024-Mar-16 00:00:00.0000, 4.521518843565546E+08, 2.012348136022595E+08, -1.233096048445914E+08,
2460392.500000000, A.D. 2024-Mar-23 00:00:00.0000, 4.480153985655931E+08, 2.095256876664717E+08, -1.253797462009065E+08,
2460399.500000000, A.D. 2024-Mar-30 00:00:00.0000, 4.437151439549167E+08, 2.177402006876251E+08, -1.274039865498843E+08,
2460406.500000000, A.D. 2024-Apr-06 00:00:00.0000, 4.392528655362512E+08, 2.258754393873056E+08, -1.293816331650824E+08,
2460413.500000000, A.D. 2024-Apr-13 00:00:00.0000, 4.346303532777646E+08, 2.339285205241715E+08, -1.313120089342505E+08,
2460420.500000000, A.D. 2024-Apr-20 00:00:00.0000, 4.298494424873332E+08, 2.418965908890379E+08, -1.331944525473494E+08,
2460427.500000000, A.D. 2024-Apr-27 00:00:00.0000, 4.249120137510219E+08, 2.497768279969855E+08, -1.350283185866851E+08,
2460434.500000000, A.D. 2024-May-04 00:00:00.0000, 4.198199925144963E+08, 2.575664407734156E+08, -1.368129775847372E+08,
2460441.500000000, A.D. 2024-May-11 00:00:00.0000, 4.145753485451782E+08, 2.652626701323863E+08, -1.385478160796227E+08,
2460448.500000000, A.D. 2024-May-18 00:00:00.0000, 4.091800953561221E+08, 2.728627894692352E+08, -1.402322366734300E+08,
2460455.500000000, A.D. 2024-May-25 00:00:00.0000, 4.036362896151741E+08, 2.803641050613772E+08, -1.418656580957388E+08,
2460462.500000000, A.D. 2024-Jun-01 00:00:00.0000, 3.979460305984945E+08, 2.877639563215438E+08, -1.434475152822860E+08,
2460469.500000000, A.D. 2024-Jun-08 00:00:00.0000, 3.921114599348574E+08, 2.950597158824257E+08, -1.449772594935363E+08,
2460476.500000000, A.D. 2024-Jun-15 00:00:00.0000, 3.861347620408970E+08, 3.022487900589733E+08, -1.464543584657463E+08,
2460483.500000000, A.D. 2024-Jun-22 00:00:00.0000, 3.800181642419370E+08, 3.093286208635836E+08, -1.478782964061587E+08,
2460490.500000000, A.D. 2024-Jun-29 00:00:00.0000, 3.737639344559351E+08, 3.162966877543866E+08, -1.492485737862124E+08,
2460497.500000000, A.D. 2024-Jul-06 00:00:00.0000, 3.673743790864354E+08, 3.231505066471269E+08, -1.505647073780620E+08,
2460504.500000000, A.D. 2024-Jul-13 00:00:00.0000, 3.608518430743412E+08, 3.298876290143756E+08, -1.518262304826500E+08,
2460511.500000000, A.D. 2024-Jul-20 00:00:00.0000, 3.541987101217741E+08, 3.365056422202637E+08, -1.530326930727656E+08,
2460518.500000000, A.D. 2024-Jul-27 00:00:00.0000, 3.474174024310337E+08, 3.430021701316520E+08, -1.541836618690798E+08,
2460525.500000000, A.D. 2024-Aug-03 00:00:00.0000, 3.405103802309822E+08, 3.493748736313812E+08, -1.552787204048918E+08,
2460532.500000000, A.D. 2024-Aug-10 00:00:00.0000, 3.334801412561034E+08, 3.556214510297618E+08, -1.563174690953279E+08,
2460539.500000000, A.D. 2024-Aug-17 00:00:00.0000, 3.263292202250234E+08, 3.617396383967159E+08, -1.572995253137718E+08,
2460546.500000000, A.D. 2024-Aug-24 00:00:00.0000, 3.190601883457790E+08, 3.677272097930883E+08, -1.582245234801644E+08,
2460553.500000000, A.D. 2024-Aug-31 00:00:00.0000, 3.116756529629411E+08, 3.735819773405264E+08, -1.590921151771512E+08,
2460560.500000000, A.D. 2024-Sep-07 00:00:00.0000, 3.041782577117946E+08, 3.793017912572275E+08, -1.599019693177850E+08,
2460567.500000000, A.D. 2024-Sep-14 00:00:00.0000, 2.965706832647536E+08, 3.848845408557751E+08, -1.606537722916481E+08,
2460574.500000000, A.D. 2024-Sep-21 00:00:00.0000, 2.888556466401871E+08, 3.903281569151374E+08, -1.613472278691998E+08,
2460581.500000000, A.D. 2024-Sep-28 00:00:00.0000, 2.810358985844800E+08, 3.956306122001357E+08, -1.619820570832042E+08,
2460588.500000000, A.D. 2024-Oct-05 00:00:00.0000, 2.731142226972308E+08, 4.007899201319047E+08, -1.625579984248265E+08,
2460595.500000000, A.D. 2024-Oct-12 00:00:00.0000, 2.650934359393014E+08, 4.058041345893899E+08, -1.630748080781865E+08,
2460602.500000000, A.D. 2024-Oct-19 00:00:00.0000, 2.569763887719688E+08, 4.106713505708058E+08, -1.635322600545772E+08,
2460609.500000000, A.D. 2024-Oct-26 00:00:00.0000, 2.487659648940437E+08, 4.153897049140506E+08, -1.639301462887636E+08,
2460616.500000000, A.D. 2024-Nov-02 00:00:00.0000, 2.404650808338588E+08, 4.199573769281908E+08, -1.642682767331003E+08,
2460623.500000000, A.D. 2024-Nov-09 00:00:00.0000, 2.320766854923638E+08, 4.243725889571286E+08, -1.645464794565670E+08,
2460630.500000000, A.D. 2024-Nov-16 00:00:00.0000, 2.236037596628211E+08, 4.286336068760451E+08, -1.647646007508979E+08,
2460637.500000000, A.D. 2024-Nov-23 00:00:00.0000, 2.150493155734897E+08, 4.327387404710308E+08, -1.649225052519206E+08,
2460644.500000000, A.D. 2024-Nov-30 00:00:00.0000, 2.064163966609144E+08, 4.366863436597049E+08, -1.650200760984670E+08,
2460651.500000000, A.D. 2024-Dec-07 00:00:00.0000, 1.977080779927104E+08, 4.404748149741124E+08, -1.650572151329520E+08,
2460658.500000000, A.D. 2024-Dec-14 00:00:00.0000, 1.889274666510532E+08, 4.441025995300649E+08, -1.650338429804169E+08,
2460665.500000000, A.D. 2024-Dec-21 00:00:00.0000, 1.800776997573694E+08, 4.475681912413732E+08, -1.649498988938937E+08,
2460672.500000000, A.D. 2024-Dec-28 00:00:00.0000, 1.711619421089635E+08, 4.508701323123693E+08, -1.648053407891740E+08,
2460679.500000000, A.D. 2025-Jan-04 00:00:00.0000, 1.621833860250170E+08, 4.540070123863995E+08, -1.646001455139055E+08,
2460686.500000000, A.D. 2025-Jan-11 00:00:00.0000, 1.531452515813089E+08, 4.569774690095131E+08, -1.643343090480869E+08,
2460693.500000000, A.D. 2025-Jan-18 00:00:00.0000, 1.440507863161990E+08, 4.597801884893770E+08, -1.640078466258200E+08,
2460700.500000000, A.D. 2025-Jan-25 00:00:00.0000, 1.349032646503365E+08, 4.624139066741641E+08, -1.636207928383711E+08,
2460707.500000000, A.D. 2025-Feb-01 00:00:00.0000, 1.257059872083508E+08, 4.648774096210483E+08, -1.631732017375796E+08,
2460714.500000000, A.D. 2025-Feb-08 00:00:00.0000, 1.164622800997016E+08, 4.671695341742225E+08, -1.626651469429776E+08,
2460721.500000000, A.D. 2025-Feb-15 00:00:00.0000, 1.071754941865876E+08, 4.692891684329907E+08, -1.620967217569199E+08,
$$EOE